IRIDIUM 36              
1 24967U 97056C   24279.49642481  .00002652  00000+0  88710-3 0  9998
2 24967  86.3900 279.9595 0002478  93.6904 266.4577 14.37082898415630
IRIDIUM 39              
1 25042U 97069D   24279.56314508  .00003546  00000+0  93937-3 0  9991
2 25042  86.3909 320.3166 0020341  78.9023 281.4467 14.48418008412096
IRIDIUM 38              
1 25043U 97069E   24279.53793171  .00002349  00000+0  77716-3 0  9993
2 25043  86.3996 340.3119 0001988 147.2492 212.8829 14.37580569409365
IRIDIUM 42              
1 25077U 97077A   24279.44360072  .00002329  00000+0  79771-3 0  9990
2 25077  86.4010 346.2030 0001685 109.1002 251.0378 14.35857044404637
IRIDIUM 44              
1 25078U 97077B   24279.52683139  .00002222  00000+0  70398-3 0  9990
2 25078  86.3971 328.7801 0003645 116.4472 243.7101 14.39698699407058
IRIDIUM 45              
1 25104U 97082A   24279.20199461  .00036534  00000+0  18007-2 0  9992
2 25104  86.3690 170.4090 0144638 196.9288 162.7099 15.08973155413417
IRIDIUM 24              
1 25105U 97082B   24279.47760432  .00003141  00000+0  96066-3 0  9994
2 25105  86.3984 188.2108 0010632 188.2414 171.8613 14.41528412406516
IRIDIUM 51              
1 25262U 98018A   24279.46272373  .00052470  00000+0  20340-2 0  9999
2 25262  86.3991 179.7489 0131355 133.0522 228.1811 15.18183837408105
